ONEWEB-0350             
1 49214U 21083AE  24305.84875512 -.00000054  00000+0 -18323-3 0  9998
2 49214  87.8900  78.2459 0001179  93.1665 266.9599 13.13470308153046
ONEWEB-0351             
1 49215U 21083AF  24305.78049225  .00000037  00000+0  59132-4 0  9999
2 49215  87.9290  32.4848 0002208  78.4837 281.6544 13.20774394158448
ONEWEB-0352             
1 49216U 21083AG  24305.82971991  .00000387  00000+0  10246-2 0  9998
2 49216  87.8907  78.2847 0001670  80.7288 279.4030 13.13471149153138
ONEWEB-0354             
1 49217U 21083AH  24305.80587931 -.00000148  00000+0 -39608-3 0  9995
2 49217  87.9292  32.4691 0001378  97.9921 262.1369 13.20766464158487
ONEWEB-0355             
1 49218U 21083AJ  24305.85986572 -.00000239  00000+0 -69040-3 0  9999
2 49218  87.8906  78.2778 0001507  90.1254 270.0048 13.13469561153017
ONEWEB-0357             
1 49219U 21083AK  24305.80271955  .00000083  00000+0  17186-3 0  9996
2 49219  87.9291  32.4838 0001718  94.1451 265.9878 13.20769496158480
ONEWEB-0332             
1 49279U 21090A   24305.80436042 -.00018444  00000+0 -49818-1 0  9997
2 49279  87.9025  47.7158 0001371  86.9453 273.1833 13.14592247149620
ONEWEB-0347             
1 49280U 21090B   24305.79326828  .00000056  00000+0  10613-3 0  9998
2 49280  87.9295  32.4878 0002230 103.7028 256.4354 13.20771917152718
