<?xml version="1.0" encoding="UTF-8"?>
<ndm xmlns:xsi="http://www.w3.org/2001/XMLSchema-instance" xsi:noNamespaceSchemaLocation="https://sanaregistry.org/r/ndmxml_unqualified/ndmxml-2.0.0-master-2.0.xsd">
<omm id="CCSDS_OMM_VERS" version="2.0">
<header><CREATION_DATE/><ORIGINATOR/></header><body><segment><metadata><OBJECT_NAME>ONEWEB-0350</OBJECT_NAME><OBJECT_ID>2021-083AE</OBJECT_ID><CENTER_NAME>EARTH</CENTER_NAME><REF_FRAME>TEME</REF_FRAME><TIME_SYSTEM>UTC</TIME_SYSTEM><MEAN_ELEMENT_THEORY>SGP4</MEAN_ELEMENT_THEORY></metadata><data><meanElements><EPOCH>2024-10-31T20:22:12.442368</EPOCH><MEAN_MOTION>13.13470308</MEAN_MOTION><ECCENTRICITY>.0001179</ECCENTRICITY><INCLINATION>87.8900</INCLINATION><RA_OF_ASC_NODE>78.2459</RA_OF_ASC_NODE><ARG_OF_PERICENTER>93.1665</ARG_OF_PERICENTER><MEAN_ANOMALY>266.9599</MEAN_ANOMALY></meanElements><tleParameters><EPHEMERIS_TYPE>0</EPHEMERIS_TYPE><CLASSIFICATION_TYPE>U</CLASSIFICATION_TYPE><NORAD_CAT_ID>49214</NORAD_CAT_ID><ELEMENT_SET_NO>999</ELEMENT_SET_NO><REV_AT_EPOCH>15304</REV_AT_EPOCH><BSTAR>-.18323E-3</BSTAR><MEAN_MOTION_DOT>-.54E-6</MEAN_MOTION_DOT><MEAN_MOTION_DDOT>0</MEAN_MOTION_DDOT></tleParameters></data></segment></body></omm>
<omm id="CCSDS_OMM_VERS" version="2.0">
<header><CREATION_DATE/><ORIGINATOR/></header><body><segment><metadata><OBJECT_NAME>ONEWEB-0351</OBJECT_NAME><OBJECT_ID>2021-083AF</OBJECT_ID><CENTER_NAME>EARTH</CENTER_NAME><REF_FRAME>TEME</REF_FRAME><TIME_SYSTEM>UTC</TIME_SYSTEM><MEAN_ELEMENT_THEORY>SGP4</MEAN_ELEMENT_THEORY></metadata><data><meanElements><EPOCH>2024-10-31T18:43:54.530400</EPOCH><MEAN_MOTION>13.20774394</MEAN_MOTION><ECCENTRICITY>.0002208</ECCENTRICITY><INCLINATION>87.9290</INCLINATION><RA_OF_ASC_NODE>32.4848</RA_OF_ASC_NODE><ARG_OF_PERICENTER>78.4837</ARG_OF_PERICENTER><MEAN_ANOMALY>281.6544</MEAN_ANOMALY></meanElements><tleParameters><EPHEMERIS_TYPE>0</EPHEMERIS_TYPE><CLASSIFICATION_TYPE>U</CLASSIFICATION_TYPE><NORAD_CAT_ID>49215</NORAD_CAT_ID><ELEMENT_SET_NO>999</ELEMENT_SET_NO><REV_AT_EPOCH>15844</REV_AT_EPOCH><BSTAR>.59132E-4</BSTAR><MEAN_MOTION_DOT>.37E-6</MEAN_MOTION_DOT><MEAN_MOTION_DDOT>0</MEAN_MOTION_DDOT></tleParameters></data></segment></body></omm>
<omm id="CCSDS_OMM_VERS" version="2.0">
<header><CREATION_DATE/><ORIGINATOR/></header><body><segment><metadata><OBJECT_NAME>ONEWEB-0352</OBJECT_NAME><OBJECT_ID>2021-083AG</OBJECT_ID><CENTER_NAME>EARTH</CENTER_NAME><REF_FRAME>TEME</REF_FRAME><TIME_SYSTEM>UTC</TIME_SYSTEM><MEAN_ELEMENT_THEORY>SGP4</MEAN_ELEMENT_THEORY></metadata><data><meanElements><EPOCH>2024-10-31T19:54:47.800224</EPOCH><MEAN_MOTION>13.13471149</MEAN_MOTION><ECCENTRICITY>.000167</ECCENTRICITY><INCLINATION>87.8907</INCLINATION><RA_OF_ASC_NODE>78.2847</RA_OF_ASC_NODE><ARG_OF_PERICENTER>80.7288</ARG_OF_PERICENTER><MEAN_ANOMALY>279.4030</MEAN_ANOMALY></meanElements><tleParameters><EPHEMERIS_TYPE>0</EPHEMERIS_TYPE><CLASSIFICATION_TYPE>U</CLASSIFICATION_TYPE><NORAD_CAT_ID>49216</NORAD_CAT_ID><ELEMENT_SET_NO>999</ELEMENT_SET_NO><REV_AT_EPOCH>15313</REV_AT_EPOCH><BSTAR>.10246E-2</BSTAR><MEAN_MOTION_DOT>.387E-5</MEAN_MOTION_DOT><MEAN_MOTION_DDOT>0</MEAN_MOTION_DDOT></tleParameters></data></segment></body></omm>
<omm id="CCSDS_OMM_VERS" version="2.0">
<header><CREATION_DATE/><ORIGINATOR/></header><body><segment><metadata><OBJECT_NAME>ONEWEB-0354</OBJECT_NAME><OBJECT_ID>2021-083AH</OBJECT_ID><CENTER_NAME>EARTH</CENTER_NAME><REF_FRAME>TEME</REF_FRAME><TIME_SYSTEM>UTC</TIME_SYSTEM><MEAN_ELEMENT_THEORY>SGP4</MEAN_ELEMENT_THEORY></metadata><data><meanElements><EPOCH>2024-10-31T19:20:27.972384</EPOCH><MEAN_MOTION>13.20766464</MEAN_MOTION><ECCENTRICITY>.0001378</ECCENTRICITY><INCLINATION>87.9292</INCLINATION><RA_OF_ASC_NODE>32.4691</RA_OF_ASC_NODE><ARG_OF_PERICENTER>97.9921</ARG_OF_PERICENTER><MEAN_ANOMALY>262.1369</MEAN_ANOMALY></meanElements><tleParameters><EPHEMERIS_TYPE>0</EPHEMERIS_TYPE><CLASSIFICATION_TYPE>U</CLASSIFICATION_TYPE><NORAD_CAT_ID>49217</NORAD_CAT_ID><ELEMENT_SET_NO>999</ELEMENT_SET_NO><REV_AT_EPOCH>15848</REV_AT_EPOCH><BSTAR>-.39608E-3</BSTAR><MEAN_MOTION_DOT>-.148E-5</MEAN_MOTION_DOT><MEAN_MOTION_DDOT>0</MEAN_MOTION_DDOT></tleParameters></data></segment></body></omm>
<omm id="CCSDS_OMM_VERS" version="2.0">
<header><CREATION_DATE/><ORIGINATOR/></header><body><segment><metadata><OBJECT_NAME>ONEWEB-0355</OBJECT_NAME><OBJECT_ID>2021-083AJ</OBJECT_ID><CENTER_NAME>EARTH</CENTER_NAME><REF_FRAME>TEME</REF_FRAME><TIME_SYSTEM>UTC</TIME_SYSTEM><MEAN_ELEMENT_THEORY>SGP4</MEAN_ELEMENT_THEORY></metadata><data><meanElements><EPOCH>2024-10-31T20:38:12.398208</EPOCH><MEAN_MOTION>13.13469561</MEAN_MOTION><ECCENTRICITY>.0001507</ECCENTRICITY><INCLINATION>87.8906</INCLINATION><RA_OF_ASC_NODE>78.2778</RA_OF_ASC_NODE><ARG_OF_PERICENTER>90.1254</ARG_OF_PERICENTER><MEAN_ANOMALY>270.0048</MEAN_ANOMALY></meanElements><tleParameters><EPHEMERIS_TYPE>0</EPHEMERIS_TYPE><CLASSIFICATION_TYPE>U</CLASSIFICATION_TYPE><NORAD_CAT_ID>49218</NORAD_CAT_ID><ELEMENT_SET_NO>999</ELEMENT_SET_NO><REV_AT_EPOCH>15301</REV_AT_EPOCH><BSTAR>-.6904E-3</BSTAR><MEAN_MOTION_DOT>-.239E-5</MEAN_MOTION_DOT><MEAN_MOTION_DDOT>0</MEAN_MOTION_DDOT></tleParameters></data></segment></body></omm>
<omm id="CCSDS_OMM_VERS" version="2.0">
<header><CREATION_DATE/><ORIGINATOR/></header><body><segment><metadata><OBJECT_NAME>ONEWEB-0357</OBJECT_NAME><OBJECT_ID>2021-083AK</OBJECT_ID><CENTER_NAME>EARTH</CENTER_NAME><REF_FRAME>TEME</REF_FRAME><TIME_SYSTEM>UTC</TIME_SYSTEM><MEAN_ELEMENT_THEORY>SGP4</MEAN_ELEMENT_THEORY></metadata><data><meanElements><EPOCH>2024-10-31T19:15:54.969120</EPOCH><MEAN_MOTION>13.20769496</MEAN_MOTION><ECCENTRICITY>.0001718</ECCENTRICITY><INCLINATION>87.9291</INCLINATION><RA_OF_ASC_NODE>32.4838</RA_OF_ASC_NODE><ARG_OF_PERICENTER>94.1451</ARG_OF_PERICENTER><MEAN_ANOMALY>265.9878</MEAN_ANOMALY></meanElements><tleParameters><EPHEMERIS_TYPE>0</EPHEMERIS_TYPE><CLASSIFICATION_TYPE>U</CLASSIFICATION_TYPE><NORAD_CAT_ID>49219</NORAD_CAT_ID><ELEMENT_SET_NO>999</ELEMENT_SET_NO><REV_AT_EPOCH>15848</REV_AT_EPOCH><BSTAR>.17186E-3</BSTAR><MEAN_MOTION_DOT>.83E-6</MEAN_MOTION_DOT><MEAN_MOTION_DDOT>0</MEAN_MOTION_DDOT></tleParameters></data></segment></body></omm>
<omm id="CCSDS_OMM_VERS" version="2.0">
<header><CREATION_DATE/><ORIGINATOR/></header><body><segment><metadata><OBJECT_NAME>ONEWEB-0332</OBJECT_NAME><OBJECT_ID>2021-090A</OBJECT_ID><CENTER_NAME>EARTH</CENTER_NAME><REF_FRAME>TEME</REF_FRAME><TIME_SYSTEM>UTC</TIME_SYSTEM><MEAN_ELEMENT_THEORY>SGP4</MEAN_ELEMENT_THEORY></metadata><data><meanElements><EPOCH>2024-10-31T19:18:16.740288</EPOCH><MEAN_MOTION>13.14592247</MEAN_MOTION><ECCENTRICITY>.0001371</ECCENTRICITY><INCLINATION>87.9025</INCLINATION><RA_OF_ASC_NODE>47.7158</RA_OF_ASC_NODE><ARG_OF_PERICENTER>86.9453</ARG_OF_PERICENTER><MEAN_ANOMALY>273.1833</MEAN_ANOMALY></meanElements><tleParameters><EPHEMERIS_TYPE>0</EPHEMERIS_TYPE><CLASSIFICATION_TYPE>U</CLASSIFICATION_TYPE><NORAD_CAT_ID>49279</NORAD_CAT_ID><ELEMENT_SET_NO>999</ELEMENT_SET_NO><REV_AT_EPOCH>14962</REV_AT_EPOCH><BSTAR>-.49818E-1</BSTAR><MEAN_MOTION_DOT>-.18444E-3</MEAN_MOTION_DOT><MEAN_MOTION_DDOT>0</MEAN_MOTION_DDOT></tleParameters></data></segment></body></omm>
<omm id="CCSDS_OMM_VERS" version="2.0">
<header><CREATION_DATE/><ORIGINATOR/></header><body><segment><metadata><OBJECT_NAME>ONEWEB-0347</OBJECT_NAME><OBJECT_ID>2021-090B</OBJECT_ID><CENTER_NAME>EARTH</CENTER_NAME><REF_FRAME>TEME</REF_FRAME><TIME_SYSTEM>UTC</TIME_SYSTEM><MEAN_ELEMENT_THEORY>SGP4</MEAN_ELEMENT_THEORY></metadata><data><meanElements><EPOCH>2024-10-31T19:02:18.379392</EPOCH><MEAN_MOTION>13.20771917</MEAN_MOTION><ECCENTRICITY>.000223</ECCENTRICITY><INCLINATION>87.9295</INCLINATION><RA_OF_ASC_NODE>32.4878</RA_OF_ASC_NODE><ARG_OF_PERICENTER>103.7028</ARG_OF_PERICENTER><MEAN_ANOMALY>256.4354</MEAN_ANOMALY></meanElements><tleParameters><EPHEMERIS_TYPE>0</EPHEMERIS_TYPE><CLASSIFICATION_TYPE>U</CLASSIFICATION_TYPE><NORAD_CAT_ID>49280</NORAD_CAT_ID><ELEMENT_SET_NO>999</ELEMENT_SET_NO><REV_AT_EPOCH>15271</REV_AT_EPOCH><BSTAR>.10613E-3</BSTAR><MEAN_MOTION_DOT>.56E-6</MEAN_MOTION_DOT><MEAN_MOTION_DDOT>0</MEAN_MOTION_DDOT></tleParameters></data></segment></body></omm>

</ndm>
